STARLINK-5681           
1 55469U 23015W   26163.24041854  .00000749  00000+0  36738-4 0  9996
2 55469  43.0011 154.6325 0001370 267.8982  92.1713 15.27579386185188
STARLINK-5708           
1 55470U 23015X   26163.25455673  .00000209  00000+0  17105-4 0  9995
2 55470  43.0031 154.7383 0001168 262.5234  97.5484 15.27577327185181
STARLINK-5711           
1 55471U 23015Y   26161.72755901  .00000243  00000+0  18325-4 0  9996
2 55471  42.9835 163.0505 0000417 105.7701 254.3197 15.27571468184952
STARLINK-5705           
1 55472U 23015Z   26162.66831338 -.00000212  00000+0  18140-5 0  9993
2 55472  43.0001 151.0462 0001026 273.2036  86.8698 15.27574002185174
STARLINK-5689           
1 55474U 23015AB  26161.74936851 -.00000157  00000+0  38292-5 0  9997
2 55474  43.0029 174.5126 0001348 285.8381  74.2322 15.27575862184823
STARLINK-5650           
1 55475U 23015AC  26163.26226168  .00000151  00000+0  15009-4 0  9993
2 55475  43.0012 154.7918 0001241 264.7202  95.3508 15.27577744185186
STARLINK-5685           
1 55477U 23015AE  26161.70920637  .00000814  00000+0  39110-4 0  9999
2 55477  43.0065 155.8919 0001821 277.5848  82.4797 15.27581799185037
STARLINK-5691           
1 55478U 23015AF  26163.23800720  .00000576  00000+0  30447-4 0  9999
2 55478  43.0012 144.1620 0001112 268.6840  91.3884 15.27577790185308
STARLINK-5688           
1 55479U 23015AG  26163.24265423  .00000202  00000+0  16883-4 0  9990
2 55479  43.0017 147.6126 0001318 271.4838  88.5863 15.27576007185260
STARLINK-5690           
1 55480U 23015AH  26163.28522473  .00000350  00000+0  22250-4 0  9996
2 55480  43.0013 165.3207 0001669 278.6899  81.3764 15.27576126185061
STARLINK-5694           
1 55481U 23015AJ  26163.30322495 -.00000776  00000+0 -18688-4 0  9996
2 55481  42.9962 165.5424 0000636 252.7684 107.3098 15.27575474185068
STARLINK-5692           
1 55483U 23015AL  26163.28138091 -.00000131  00000+0  47684-5 0  9995
2 55483  43.0014 165.3761 0001467 263.4453  96.6231 15.27575175185065
STARLINK-5696           
1 55484U 23015AM  26161.74422491  .00000212  00000+0  17232-4 0  9999
2 55484  43.0035 174.4727 0001153 274.0308  86.0412 15.27578703184828
STARLINK-5695           
1 55485U 23015AN  26162.33013593 -.00000122  00000+0  50676-5 0  9996
2 55485  43.0028 171.1335 0000864 294.0011  66.0750 15.27577836184910
STARLINK-5704           
1 55486U 23015AP  26163.30709390 -.00002226  00000+0 -71421-4 0  9990
2 55486  43.0085 165.5220 0001155 256.7187 103.3536 15.27558204185069
STARLINK-5701           
1 55487U 23015AQ  26161.72623101 -.00000558  00000+0 -10746-4 0  9999
2 55487  42.9998 174.3408 0001217 266.6951  93.3761 15.27583200184820
STARLINK-5706           
1 55488U 23015AR  26163.29294599 -.00000243  00000+0  67256-6 0  9999
2 55488  43.0005 165.4526 0001080 264.9505  95.1224 15.27578948185062
STARLINK-5371           
1 55489U 23015AS  26162.31857323  .00000138  00000+0  14520-4 0  9998
2 55489  43.0011 171.0491 0001082 262.4559  97.6170 15.27576945184913
STARLINK-5373           
1 55490U 23015AT  26163.27366676  .00000118  00000+0  13819-4 0  9990
2 55490  43.0000 165.3036 0001346 265.3158  94.7540 15.27576499185064
STARLINK-5364           
1 55491U 23015AU  26163.22852891 -.00002065  00000+0 -65589-4 0  9991
2 55491  43.0018 147.4986 0001422 276.4453  83.6237 15.27561124185266
STARLINK-5013           
1 55492U 23015AV  26163.29808358 -.00000259  00000+0  10495-6 0  9998
2 55492  42.9990 165.4825 0001138 269.6552  90.4170 15.27573529185066
STARLINK-5362           
1 55493U 23015AW  26163.27880976 -.00000113  00000+0  54138-5 0  9993
2 55493  43.0024 165.3507 0001496 269.4793  90.5887 15.27575924185062
STARLINK-5344           
1 55494U 23015AX  26163.30065525 -.00000326  00000+0 -23268-5 0  9990
2 55494  43.0001 165.5115 0001133 268.5482  91.5240 15.27573516185067
STARLINK-5100           
1 55495U 23015AY  26163.23495095  .00000294  00000+0  20200-4 0  9996
2 55495  43.0026 147.5594 0001661 270.0503  90.0158 15.27574527185261
STARLINK-5363           
1 55497U 23015BA  26163.30451685  .00000102  00000+0  13229-4 0  9994
2 55497  43.0026 165.5353 0000277 277.3356  82.7464 15.27579436185064
STARLINK-5365           
1 55498U 23015BB  26162.33399067 -.00000099  00000+0  59188-5 0  9993
2 55498  43.0035 171.1503 0001479 289.4595  70.6096 15.27574019184911
STARLINK-5366           
1 55499U 23015BC  26162.28772892  .00000178  00000+0  16008-4 0  9999
2 55499  43.0016 170.8067 0001520 267.2746  92.7932 15.27577195185666
STARLINK-5141           
1 55500U 23015BD  26163.30836299  .00000086  00000+0  12641-4 0  9995
2 55500  43.0038 165.5679 0000663 266.6914  93.3862 15.27576765185065
STARLINK-5367           
1 55501U 23015BE  26161.75321748  .00000698  00000+0  34905-4 0  9997
2 55501  43.0033 174.5218 0001426 279.9840  80.0851 15.27580065184825
ELEKTRO-L 4             
1 55506U 23016A   26161.81950044 -.00000040  00000+0  00000+0 0  9993
2 55506   0.0721 174.0756 0000822   1.1447 184.7922  1.00272872 12276
