OBJECT_NAME,OBJECT_ID,EPOCH,MEAN_MOTION,ECCENTRICITY,INCLINATION,RA_OF_ASC_NODE,ARG_OF_PERICENTER,MEAN_ANOMALY,EPHEMERIS_TYPE,CLASSIFICATION_TYPE,NORAD_CAT_ID,ELEMENT_SET_NO,REV_AT_EPOCH,BSTAR,MEAN_MOTION_DOT,MEAN_MOTION_DDOT
STARLINK-5681,2023-015W,2026-06-12T05:46:12.161856,15.27579386,.00013709,43.0011,154.6325,267.8982,92.1713,0,U,55469,999,18518,.36737785E-4,.749E-5,0
STARLINK-5708,2023-015X,2026-06-12T06:06:33.701472,15.27577327,.00011687,43.0031,154.7383,262.5234,97.5484,0,U,55470,999,18518,.17105119E-4,.209E-5,0
STARLINK-5711,2023-015Y,2026-06-10T17:27:41.098464,15.27571468,.00004175,42.9835,163.0505,105.7701,254.3197,0,U,55471,999,18495,.18324903E-4,.243E-5,0
STARLINK-5705,2023-015Z,2026-06-11T16:02:22.276032,15.27574002,.00010269,43.0001,151.0462,273.2036,86.8698,0,U,55472,999,18517,.1813993E-5,-.212E-5,0
STARLINK-5689,2023-015AB,2026-06-10T17:59:05.439264,15.27575862,.00013483,43.0029,174.5126,285.8381,74.2322,0,U,55474,999,18482,.382924E-5,-.157E-5,0
STARLINK-5650,2023-015AC,2026-06-12T06:17:39.409152,15.27577744,.00012415,43.0012,154.7918,264.7202,95.3508,0,U,55475,999,18518,.15009458E-4,.151E-5,0
STARLINK-5685,2023-015AE,2026-06-10T17:01:15.430368,15.27581799,.0001821,43.0065,155.8919,277.5848,82.4797,0,U,55477,999,18503,.39109678E-4,.814E-5,0
STARLINK-5691,2023-015AF,2026-06-12T05:42:43.822080,15.27577790,.00011127,43.0012,144.1620,268.6840,91.3884,0,U,55478,999,18530,.30446644E-4,.576E-5,0
STARLINK-5688,2023-015AG,2026-06-12T05:49:25.325472,15.27576007,.00013182,43.0017,147.6126,271.4838,88.5863,0,U,55479,999,18526,.16883332E-4,.202E-5,0
STARLINK-5690,2023-015AH,2026-06-12T06:50:43.416672,15.27576126,.00016691,43.0013,165.3207,278.6899,81.3764,0,U,55480,999,18506,.22249564E-4,.35E-5,0
STARLINK-5694,2023-015AJ,2026-06-12T07:16:38.635680,15.27575474,.00006366,42.9962,165.5424,252.7684,107.3098,0,U,55481,999,18506,-.18687628E-4,-.776E-5,0
STARLINK-5692,2023-015AL,2026-06-12T06:45:11.310624,15.27575175,.00014678,43.0014,165.3761,263.4453,96.6231,0,U,55483,999,18506,.4768389E-5,-.131E-5,0
STARLINK-5696,2023-015AM,2026-06-10T17:51:41.032224,15.27578703,.00011531,43.0035,174.4727,274.0308,86.0412,0,U,55484,999,18482,.1723166E-4,.212E-5,0
STARLINK-5695,2023-015AN,2026-06-11T07:55:23.744352,15.27577836,.0000864,43.0028,171.1335,294.0011,66.0750,0,U,55485,999,18491,.50676E-5,-.122E-5,0
STARLINK-5704,2023-015AP,2026-06-12T07:22:12.912960,15.27558204,.00011556,43.0085,165.5220,256.7187,103.3536,0,U,55486,999,18506,-.71421309E-4,-.2226E-4,0
STARLINK-5701,2023-015AQ,2026-06-10T17:25:46.359264,15.27583200,.00012177,42.9998,174.3408,266.6951,93.3761,0,U,55487,999,18482,-.10745962E-4,-.558E-5,0
STARLINK-5706,2023-015AR,2026-06-12T07:01:50.533536,15.27578948,.000108,43.0005,165.4526,264.9505,95.1224,0,U,55488,999,18506,.672556E-6,-.243E-5,0
STARLINK-5371,2023-015AS,2026-06-11T07:38:44.727072,15.27576945,.0001082,43.0011,171.0491,262.4559,97.6170,0,U,55489,999,18491,.1452E-4,.138E-5,0
STARLINK-5373,2023-015AT,2026-06-12T06:34:04.808064,15.27576499,.00013464,43.0000,165.3036,265.3158,94.7540,0,U,55490,999,18506,.1381939E-4,.118E-5,0
STARLINK-5364,2023-015AU,2026-06-12T05:29:04.897824,15.27561124,.00014221,43.0018,147.4986,276.4453,83.6237,0,U,55491,999,18526,-.65589376E-4,-.2065E-4,0
STARLINK-5013,2023-015AV,2026-06-12T07:09:14.421312,15.27573529,.00011382,42.9990,165.4825,269.6552,90.4170,0,U,55492,999,18506,.10495E-6,-.259E-5,0
STARLINK-5362,2023-015AW,2026-06-12T06:41:29.163264,15.27575924,.0001496,43.0024,165.3507,269.4793,90.5887,0,U,55493,999,18506,.5413781E-5,-.113E-5,0
STARLINK-5344,2023-015AX,2026-06-12T07:12:56.613600,15.27573516,.00011332,43.0001,165.5115,268.5482,91.5240,0,U,55494,999,18506,-.2326819E-5,-.326E-5,0
STARLINK-5100,2023-015AY,2026-06-12T05:38:19.762080,15.27574527,.00016613,43.0026,147.5594,270.0503,90.0158,0,U,55495,999,18526,.20199705E-4,.294E-5,0
STARLINK-5363,2023-015BA,2026-06-12T07:18:30.255840,15.27579436,.00002773,43.0026,165.5353,277.3356,82.7464,0,U,55497,999,18506,.13228609E-4,.102E-5,0
STARLINK-5365,2023-015BB,2026-06-11T08:00:56.793888,15.27574019,.0001479,43.0035,171.1503,289.4595,70.6096,0,U,55498,999,18491,.59188E-5,-.99E-6,0
STARLINK-5366,2023-015BC,2026-06-11T06:54:19.778688,15.27577195,.000152,43.0016,170.8067,267.2746,92.7932,0,U,55499,999,18566,.16008E-4,.178E-5,0
STARLINK-5141,2023-015BD,2026-06-12T07:24:02.562336,15.27576765,.00006633,43.0038,165.5679,266.6914,93.3862,0,U,55500,999,18506,.12641042E-4,.86E-6,0
STARLINK-5367,2023-015BE,2026-06-10T18:04:37.990272,15.27580065,.0001426,43.0033,174.5218,279.9840,80.0851,0,U,55501,999,18482,.34905491E-4,.698E-5,0
ELEKTRO-L 4,2023-016A,2026-06-10T19:40:04.838016,1.00272872,.00008229,0.0721,174.0756,1.1447,184.7922,0,U,55506,999,1227,0,-.4E-6,0
